{
  "type": "FeatureCollection",
  "features": [
    {
      "type": "Feature",
      "properties": {
        "norad_id": 40069,
        "name": "METEOR-M 2",
        "group": "weather",
        "lat": -8.54978092205285,
        "lon": 146.80458210073039,
        "alt_km": 820.9624567129222,
        "timestamp": "2025-12-16T15:45:50.633638+00:00",
        "meta_object_name": "METEOR-M 2",
        "meta_object_id": "2014-037A",
        "meta_epoch": "2025-12-15T21:59:06.948960",
        "meta_mean_motion": 14.21389252,
        "meta_eccentricity": 0.00051487,
        "meta_inclination": 98.4901,
        "meta_ra_of_asc_node": 327.379,
        "meta_arg_of_pericenter": 199.6569,
        "meta_mean_anomaly": 160.4411,
        "meta_ephemeris_type": 0,
        "meta_classification_type": "U",
        "meta_norad_cat_id": 40069,
        "meta_element_set_no": 999,
        "meta_rev_at_epoch": 59328,
        "meta_bstar": 0.00024042061,
        "meta_mean_motion_dot": 4.83e-06,
        "meta_mean_motion_ddot": 0,
        "tle_line1": "1 40069U 14037A   25349.91605265  .00000483  00000+0  24042-3 0  9990",
        "tle_line2": "2 40069  98.4901 327.3790 0005148 199.6569 160.4411 14.21389252593287"
      },
      "geometry": {
        "type": "Point",
        "coordinates": [
          146.80458210073039,
          -8.54978092205285
        ]
      }
    },
    {
      "type": "Feature",
      "properties": {
        "norad_id": 40267,
        "name": "HIMAWARI-8",
        "group": "weather",
        "lat": -0.005621170796981037,
        "lon": 102.66191896454087,
        "alt_km": 35789.62840175477,
        "timestamp": "2025-12-16T15:45:50.633657+00:00",
        "meta_object_name": "HIMAWARI-8",
        "meta_object_id": "2014-060A",
        "meta_epoch": "2025-12-15T20:54:15.532704",
        "meta_mean_motion": 1.00272851,
        "meta_eccentricity": 8.916e-05,
        "meta_inclination": 0.0176,
        "meta_ra_of_asc_node": 160.9257,
        "meta_arg_of_pericenter": 125.6261,
        "meta_mean_anomaly": 252.4478,
        "meta_ephemeris_type": 0,
        "meta_classification_type": "U",
        "meta_norad_cat_id": 40267,
        "meta_element_set_no": 999,
        "meta_rev_at_epoch": 4092,
        "meta_bstar": 0,
        "meta_mean_motion_dot": -2.53e-06,
        "meta_mean_motion_ddot": 0,
        "tle_line1": "1 40267U 14060A   25349.87101311 -.00000253  00000+0  00000+0 0  9994",
        "tle_line2": "2 40267   0.0176 160.9257 0000891 125.6261 252.4478  1.00272851 40929"
      },
      "geometry": {
        "type": "Point",
        "coordinates": [
          102.66191896454087,
          -0.005621170796981037
        ]
      }
    },
    {
      "type": "Feature",
      "properties": {
        "norad_id": 40367,
        "name": "FENGYUN 2G",
        "group": "weather",
        "lat": -1.1948404883050583,
        "lon": 61.483538755305545,
        "alt_km": 35798.9445923769,
        "timestamp": "2025-12-16T15:45:50.633676+00:00",
        "meta_object_name": "FENGYUN 2G",
        "meta_object_id": "2014-090A",
        "meta_epoch": "2025-12-15T18:59:44.414592",
        "meta_mean_motion": 1.00263196,
        "meta_eccentricity": 0.00029567,
        "meta_inclination": 5.1761,
        "meta_ra_of_asc_node": 75.0635,
        "meta_arg_of_pericenter": 202.0383,
        "meta_mean_anomaly": 191.9641,
        "meta_ephemeris_type": 0,
        "meta_classification_type": "U",
        "meta_norad_cat_id": 40367,
        "meta_element_set_no": 999,
        "meta_rev_at_epoch": 4016,
        "meta_bstar": 0,
        "meta_mean_motion_dot": -2.81e-06,
        "meta_mean_motion_ddot": 0,
        "tle_line1": "1 40367U 14090A   25349.79148628 -.00000281  00000+0  00000+0 0  9992",
        "tle_line2": "2 40367   5.1761  75.0635 0002956 202.0383 191.9641  1.00263196 40168"
      },
      "geometry": {
        "type": "Point",
        "coordinates": [
          61.483538755305545,
          -1.1948404883050583
        ]
      }
    },
    {
      "type": "Feature",
      "properties": {
        "norad_id": 40732,
        "name": "METEOSAT-11 (MSG-4)",
        "group": "weather",
        "lat": -2.702803691525492,
        "lon": -28.768671457735575,
        "alt_km": 35789.63634076756,
        "timestamp": "2025-12-16T15:45:50.633694+00:00",
        "meta_object_name": "METEOSAT-11 (MSG-4)",
        "meta_object_id": "2015-034A",
        "meta_epoch": "2025-12-15T21:59:31.782048",
        "meta_mean_motion": 1.00268483,
        "meta_eccentricity": 9.037e-05,
        "meta_inclination": 2.7437,
        "meta_ra_of_asc_node": 71.9932,
        "meta_arg_of_pericenter": 131.0549,
        "meta_mean_anomaly": 220.8943,
        "meta_ephemeris_type": 0,
        "meta_classification_type": "U",
        "meta_norad_cat_id": 40732,
        "meta_element_set_no": 999,
        "meta_rev_at_epoch": 537,
        "meta_bstar": 0,
        "meta_mean_motion_dot": 8.2e-07,
        "meta_mean_motion_ddot": 0,
        "tle_line1": "1 40732U 15034A   25349.91634007  .00000082  00000+0  00000+0 0  9990",
        "tle_line2": "2 40732   2.7437  71.9932 0000903 131.0549 220.8943  1.00268483  5372"
      },
      "geometry": {
        "type": "Point",
        "coordinates": [
          -28.768671457735575,
          -2.702803691525492
        ]
      }
    },
    {
      "type": "Feature",
      "properties": {
        "norad_id": 41105,
        "name": "ELEKTRO-L 2",
        "group": "weather",
        "lat": -5.106010359411625,
        "lon": -52.6274652938046,
        "alt_km": 35772.09230122894,
        "timestamp": "2025-12-16T15:45:50.633714+00:00",
        "meta_object_name": "ELEKTRO-L 2",
        "meta_object_id": "2015-074A",
        "meta_epoch": "2025-12-15T01:19:59.895840",
        "meta_mean_motion": 1.00272551,
        "meta_eccentricity": 0.00038379,
        "meta_inclination": 6.2318,
        "meta_ra_of_asc_node": 72.8015,
        "meta_arg_of_pericenter": 207.9334,
        "meta_mean_anomaly": 168.7361,
        "meta_ephemeris_type": 0,
        "meta_classification_type": "U",
        "meta_norad_cat_id": 41105,
        "meta_element_set_no": 999,
        "meta_rev_at_epoch": 3666,
        "meta_bstar": 0,
        "meta_mean_motion_dot": -1e-06,
        "meta_mean_motion_ddot": 0,
        "tle_line1": "1 41105U 15074A   25349.05555435 -.00000100  00000+0  00000+0 0  9993",
        "tle_line2": "2 41105   6.2318  72.8015 0003837 207.9334 168.7361  1.00272551 36661"
      },
      "geometry": {
        "type": "Point",
        "coordinates": [
          -52.6274652938046,
          -5.106010359411625
        ]
      }
    },
    {
      "type": "Feature",
      "properties": {
        "norad_id": 41752,
        "name": "INSAT-3DR",
        "group": "weather",
        "lat": -0.05414101067205034,
        "lon": 36.118123564471226,
        "alt_km": 35820.61040726421,
        "timestamp": "2025-12-16T15:45:50.633733+00:00",
        "meta_object_name": "INSAT-3DR",
        "meta_object_id": "2016-054A",
        "meta_epoch": "2025-12-15T22:18:00.014112",
        "meta_mean_motion": 1.00271522,
        "meta_eccentricity": 0.0014198,
        "meta_inclination": 0.0999,
        "meta_ra_of_asc_node": 86.7073,
        "meta_arg_of_pericenter": 184.4932,
        "meta_mean_anomaly": 222.1178,
        "meta_ephemeris_type": 0,
        "meta_classification_type": "U",
        "meta_norad_cat_id": 41752,
        "meta_element_set_no": 999,
        "meta_rev_at_epoch": 3398,
        "meta_bstar": 0,
        "meta_mean_motion_dot": -5.4e-07,
        "meta_mean_motion_ddot": 0,
        "tle_line1": "1 41752U 16054A   25349.92916683 -.00000054  00000+0  00000+0 0  9990",
        "tle_line2": "2 41752   0.0999  86.7073 0014198 184.4932 222.1178  1.00271522 33989"
      },
      "geometry": {
        "type": "Point",
        "coordinates": [
          36.118123564471226,
          -0.05414101067205034
        ]
      }
    },
    {
      "type": "Feature",
      "properties": {
        "norad_id": 41836,
        "name": "HIMAWARI-9",
        "group": "weather",
        "lat": 0.026358247141052164,
        "lon": 102.76530954173735,
        "alt_km": 35790.44980420077,
        "timestamp": "2025-12-16T15:45:50.633752+00:00",
        "meta_object_name": "HIMAWARI-9",
        "meta_object_id": "2016-064A",
        "meta_epoch": "2025-12-14T22:38:53.164032",
        "meta_mean_motion": 1.00272988,
        "meta_eccentricity": 0.00010766,
        "meta_inclination": 0.0419,
        "meta_ra_of_asc_node": 96.9426,
        "meta_arg_of_pericenter": 179.7054,
        "meta_mean_anomaly": 287.6965,
        "meta_ephemeris_type": 0,
        "meta_classification_type": "U",
        "meta_norad_cat_id": 41836,
        "meta_element_set_no": 999,
        "meta_rev_at_epoch": 3336,
        "meta_bstar": 0,
        "meta_mean_motion_dot": -2.54e-06,
        "meta_mean_motion_ddot": 0,
        "tle_line1": "1 41836U 16064A   25348.94367088 -.00000254  00000+0  00000+0 0  9996",
        "tle_line2": "2 41836   0.0419  96.9426 0001076 179.7054 287.6965  1.00272988 33366"
      },
      "geometry": {
        "type": "Point",
        "coordinates": [
          102.76530954173735,
          0.026358247141052164
        ]
      }
    }
  ]
}